[{"OBJECT_NAME":"STARLINK-31566","OBJECT_ID":"2024-068W","EPOCH":"2026-03-09T07:03:01.801440","MEAN_MOTION":15.27575715,"ECCENTRICITY":9.159e-5,"INCLINATION":43.004,"RA_OF_ASC_NODE":36.6226,"ARG_OF_PERICENTER":268.5979,"MEAN_ANOMALY":91.4768,"EPHEMERIS_TYPE":0,"CLASSIFICATION_TYPE":"U","NORAD_CAT_ID":59475,"ELEMENT_SET_NO":999,"REV_AT_EPOCH":10846,"BSTAR":-1.8371019e-5,"MEAN_MOTION_DOT":-7.67e-6,"MEAN_MOTION_DDOT":0},{"OBJECT_NAME":"OBJECT BE","OBJECT_ID":"2025-313BE","EPOCH":"2026-03-09T16:43:59.380320","MEAN_MOTION":15.29801687,"ECCENTRICITY":0.00072083,"INCLINATION":97.3989,"RA_OF_ASC_NODE":145.3568,"ARG_OF_PERICENTER":335.3714,"MEAN_ANOMALY":24.7181,"EPHEMERIS_TYPE":0,"CLASSIFICATION_TYPE":"U","NORAD_CAT_ID":67482,"ELEMENT_SET_NO":999,"REV_AT_EPOCH":797,"BSTAR":0.0026504328,"MEAN_MOTION_DOT":0.00077178,"MEAN_MOTION_DDOT":0}]
