STARLINK-31566          
1 59475U 24068W   26068.29377085 -.00000767  00000+0 -18371-4 0  9998
2 59475  43.0040  36.6226 0000915 268.5979  91.4768 15.27575715108468
2025-313BE              
1 67482U 25313BE  26068.69721505  .00077178  00000+0  26504-2 0  9996
2 67482  97.3989 145.3568 0007208 335.3714  24.7181 15.29801687  7972
